1 27424U 02022A   11292.10375805  .00001079  00000-0  24940-3 0   977
2 27424 098.2072 230.9503 0001320 087.4811 272.6544 14.57122089503115